UNKNOWN                 
1 82961U          26092.38170860  .00012585  00000+0  18388-1 0  9997
2 82961  99.8184 246.2103 0400387 108.8204 255.6780 13.26653828570368
UNKNOWN                 
1 82965U          26072.67873180  .00001132  00000+0  15749-2 0  9991
2 82965 100.1074 160.1438 0003543 183.0318 177.0799 13.60232436536810
UNKNOWN                 
1 83903U          26092.82116060 -.00000215  00000+0  00000+0 0  9993
2 83903   5.9117 289.6672 0122019 254.3786 302.6914  0.99117123 44767
UNKNOWN                 
1 83934U          26094.02080586 -.00000238  00000+0  00000+0 0  9999
2 83934   5.5317 296.8069 0222934 275.9679 284.7102  1.02662986 46438
UNKNOWN                 
1 84006U          26089.38104981 -.00000005  00000+0  00000+0 0  9991
2 84006  22.3944 155.4727 6167335  98.4583 331.2963  2.16230878 86551
UNKNOWN                 
1 84177U          26085.98990080  .00004124  00000+0  53429-2 0  9996
2 84177   7.5543 125.0345 6584629 203.9091 101.2563  3.11924316133361
UNKNOWN                 
1 84188U          26094.15119796  .00357694  00000+0  17316+0 0  9999
2 84188  64.8895 153.8008 3456420   5.3443 357.5999  8.14857003 50164
UNKNOWN                 
1 84192U          26085.94961519  .00004983  00000+0  13663-1 0  9992
2 84192   6.1026  57.5144 6956391 338.3085   2.7316  2.59776346112569
UNKNOWN                 
1 84232U          26094.21980156  .00071860  00000+0  43664-1 0  9997
2 84232  20.2966 208.6993 6519887 182.7231 170.3198  3.24393748108293
UNKNOWN                 
1 84236U          26092.57696211  .00001265  00000+0  79451-2 0  9990
2 84236   9.2167 285.6034 6890726 192.2578 133.0766  2.62722267116897
UNKNOWN                 
1 84292U          26093.98034849  .00005131  00000+0  32329-2 0  9990
2 84292  23.8398   4.8162 4550079 150.4787 245.5583  6.22473961235050
UNKNOWN                 
1 84406U          26085.69393062  .00000555  00000+0  31186-2 0  9996
2 84406 101.7219 236.2012 0050727 192.1916 180.3498 12.67518606 62464
UNKNOWN                 
1 84407U          26094.15900844 -.00000253  00000+0 -97436-3 0  9998
2 84407  19.4301 289.4040 7219860 122.2999 327.0277  2.05803126 78186
UNKNOWN                 
1 84575U          26093.25891812 -.00000059  00000+0  32460-2 0  9996
2 84575  18.0307 120.9118 7123003  91.0278 343.8063  2.19858928 67917
UNKNOWN                 
1 84932U          26094.56104436  .00000584  00000+0  51483-2 0  9995
2 84932   2.0584 176.8417 6573427 183.7223 159.8050  3.00177937135173
UNKNOWN                 
1 85004U          26094.39516074  .00001409  00000+0  44243-3 0  9996
2 85004  98.4385  68.8904 0046579 182.2279 331.5873 14.41415269647120
UNKNOWN                 
1 85010U          26093.09308339  .00001287  00000+0  13824-2 0  9996
2 85010  99.2417 316.5944 0026562 324.5503 189.3515 13.75320279619224
UNKNOWN                 
1 85015U          26094.51239569  .00000778  00000+0  15939-3 0  9991
2 85015  74.0497 182.3712 0013954  56.6995 303.5506 14.62451192659094
UNKNOWN                 
1 85023U          26092.08457380  .00030967  00000+0  39336-2 0  9992
2 85023  99.8354 136.8805 0000963 160.1103 228.9922 14.81582865645130
UNKNOWN                 
1 85027U          26094.23382408  .00000216  00000+0  28215-3 0  9992
2 85027  66.0417 186.0304 0168375 129.8725 231.7286 13.74298277620078
UNKNOWN                 
1 85047U          26092.92255610  .00018006  00000+0  28158-1 0  9992
2 85047 102.1676  86.7472 0126810 123.7581 237.5699 13.47273534591610
UNKNOWN                 
1 85061U          26093.96077463  .00004687  00000+0  18539-1 0  9993
2 85061 102.4037  93.1070 0263778 332.4265  84.3946 12.77886798570118
UNKNOWN                 
1 85100U          26091.07487483  .00000438  00000+0  14496-3 0  9994
2 85100  74.0480  20.6343 0013440 225.0229 152.2993 14.40814286649098
UNKNOWN                 
1 85106U          26094.57200366  .00000810  00000+0  92836-3 0  9999
2 85106 100.0545 205.9836 0010799  89.1352 290.6839 13.73069635618559
UNKNOWN                 
1 85151U          26094.62977800  .00031489  00000+0  37308-2 0  9997
2 85151  98.3959 329.1227 0008024 128.8090 231.3840 14.84447397496240
UNKNOWN                 
1 85210U          26090.68657712  .00000412  00000+0  43080-3 0  9999
2 85210  99.8645 239.6912 0215263  35.7962 340.9039 13.71687155617097
UNKNOWN                 
1 85217U          26094.48621271  .00005250  00000+0  13670-2 0  9995
2 85217  98.0217 186.5155 0207577 147.2890 214.1353 14.37847037644054
UNKNOWN                 
1 85237U          26092.79651278  .00003217  00000+0  65095-3 0  9999
2 85237  65.5310 283.0937 0516879 337.1689  20.7120 14.02481153623914
UNKNOWN                 
1 85238U          26094.56742941  .00000070  00000+0  93248-4 0  9991
2 85238  99.0704  25.5708 0062357 255.4933 279.5065 13.88365505626493
UNKNOWN                 
1 85246U          26093.94800913  .00003522  00000+0  12583-2 0  9991
2 85246  97.9919  91.9670 0221488 333.3158  25.6759 14.21912486639015
UNKNOWN                 
1 85373U          26094.37588142  .00003519  00000+0  23783-2 0  9997
2 85373 100.4265 151.0806 0050243 302.1841 118.3421 14.00571664627896
UNKNOWN                 
1 85423U          26080.09226852 -.00000119  00000+0  00000+0 0  9992
2 85423   0.2500  63.9100 0237500 184.1600 179.3500  1.04170165    18
UNKNOWN                 
1 85431U          26093.35914132  .00001901  00000+0  44348-3 0  9995
2 85431  29.0615  94.3871 0654717  57.2715 308.9262 13.68342064  2587
UNKNOWN                 
1 85448U          26072.61808446 -.00000384  00000+0  00000+0 0  9997
2 85448  41.4606 155.5047 0007289 313.6966 141.3444 15.68404032    03
UNKNOWN                 
1 87014U          26094.41515572  .00003267  00000+0  49688-2 0  9995
2 87014 100.4806  69.9546 0051571 332.0905 182.5796 13.52484360606142
UNKNOWN                 
1 87029U          26086.81119665  .00001124  00000+0  70759-3 0  9993
2 87029  98.7455 123.3128 0080255 315.8016  43.6758 14.04747797607758
UNKNOWN                 
1 87042U          26094.37509181  .00000873  00000+0  53992-3 0  9994
2 87042  98.6977 138.4729 0044708 136.9082 223.5601 14.07320338569803
UNKNOWN                 
1 87051U          26093.12046525  .00004479  00000+0  15699-2 0  9991
2 87051  65.7314 348.7323 0708380  90.2112 278.0060 13.46386130603579
UNKNOWN                 
1 87054U          26094.66040949  .00002693  00000+0  15104-2 0  9995
2 87054 100.0876 352.9538 0014187  38.1453 322.0715 14.11582374632252
UNKNOWN                 
1 87071U          26093.96742255  .00003983  00000+0  14534-2 0  9994
2 87071  61.2201 297.9646 0471034 294.1148  61.1298 13.86812623618044
UNKNOWN                 
1 87129U          26094.21681094  .00000296  00000+0  24661-2 0  9996
2 87129 102.2546 191.5062 0034377 228.6243 131.1863 12.42871684560641
UNKNOWN                 
1 87159U          26092.65472632  .00001272  00000+0  14763-2 0  9998
2 87159  90.3484  73.3923 0101515 289.1120  69.9070 13.66379292571836
UNKNOWN                 
1 87163U          26092.91648894  .00005060  00000+0  14698-2 0  9993
2 87163  65.6006 321.9209 0647084  15.0055 346.9231 13.64753848592688
UNKNOWN                 
1 87164U          26094.45226667  .00009364  00000+0  18272-2 0  9998
2 87164  65.2058   0.0397 0108448   3.4235 356.7582 14.59665284652217
UNKNOWN                 
1 87204U          26093.41163723  .00003379  00000+0  13131-2 0  9990
2 87204  98.5292 316.9962 0045969 357.4684   2.6259 14.29920486641396
UNKNOWN                 
1 87211U          26091.77849361  .00003159  00000+0  86043-3 0  9993
2 87211  99.0864 104.5752 0052420 190.3231 345.5445 14.47402693723689
UNKNOWN                 
1 87214U          26091.47379515  .00001801  00000+0  16276-2 0  9994
2 87214 100.3299 105.9427 0067716 332.2383  27.5161 13.84363606615427
UNKNOWN                 
1 87237U          26093.09972686  .00000510  00000+0  41744-3 0  9992
2 87237  99.2367 153.2576 0102359 343.6488  45.9084 13.91862023627257
UNKNOWN                 
1 87239U          26094.11311430  .00016213  00000+0  37868-2 0  9990
2 87239  82.8745 347.2378 0021344  40.9905 319.2895 14.54474682644196
UNKNOWN                 
1 87245U          26094.05237103  .00009066  00000+0  18595-2 0  9998
2 87245  65.6386 107.1613 0424614  64.7327 332.3389 14.16970250630118
UNKNOWN                 
1 87271U          26094.53363549  .00008198  00000+0  14389-2 0  9996
2 87271  65.7529 292.6788 0420429  14.1746 347.0717 14.23664048628415
UNKNOWN                 
1 87280U          26094.61238154  .00000456  00000+0  82364-3 0  9996
2 87280  64.6163 316.1854 0125206 238.5829 120.2917 13.48670009549079
UNKNOWN                 
1 87293U          26094.57426867  .00007792  00000+0  14595-2 0  9995
2 87293  65.8978 204.8505 0428211 298.9503  56.9279 14.19932883630007
UNKNOWN                 
1 87300U          26094.45051887  .00002030  00000+0  14148-2 0  9991
2 87300 100.0958  93.3615 0024282 353.5761   6.5085 13.99879336628882
UNKNOWN                 
1 87304U          26086.79342591  .00001354  00000+0  20169-3 0  9997
2 87304  74.0158 115.2207 0016394  54.0422 306.2269 14.75893335661972
UNKNOWN                 
1 87320U          26094.20613404  .00001687  00000+0  10528-2 0  9990
2 87320  66.5920 175.8829 0423163 342.6768  16.0218 13.70524382609159
UNKNOWN                 
1 87334U          26094.46630108  .00031604  00000+0  17023-1 0  9991
2 87334  90.0051 271.7217 0066124 241.5785 117.8726 14.11466681402523
UNKNOWN                 
1 87335U          26094.45767583  .00036637  00000+0  19316-1 0  9997
2 87335  89.9970 267.8667 0086207 221.6505 137.8095 14.11805833402852
UNKNOWN                 
1 87405U          26094.62079473  .00002539  00000+0  17851-2 0  9995
2 87405  82.7520 331.0369 0060920   7.4120 352.7934 13.96923279626914
